{
  "type": "FeatureCollection",
  "features": [
    {
      "type": "Feature",
      "properties": {
        "norad_id": 66476,
        "name": "STARLINK-35372",
        "group": "last-30-days",
        "lat": -29.722822842452853,
        "lon": -36.36004697916934,
        "alt_km": 417.2678836032892,
        "timestamp": "2025-12-06T18:50:08.955059+00:00",
        "meta_object_name": "STARLINK-35372",
        "meta_object_id": "2025-262W",
        "meta_epoch": "2025-12-06T08:00:01.999872",
        "meta_mean_motion": 15.50658794,
        "meta_eccentricity": 0.00013057,
        "meta_inclination": 43.0002,
        "meta_ra_of_asc_node": 108.4986,
        "meta_arg_of_pericenter": 260.8422,
        "meta_mean_anomaly": 322.6116,
        "meta_ephemeris_type": 0,
        "meta_classification_type": "U",
        "meta_norad_cat_id": 66476,
        "meta_element_set_no": 999,
        "meta_rev_at_epoch": 450,
        "meta_bstar": -0.0032426403,
        "meta_mean_motion_dot": -0.00186636,
        "meta_mean_motion_ddot": 0,
        "tle_line1": "1 66476U 25262W   25340.33335648 -.00186636  00000+0 -32426-2 0  9995",
        "tle_line2": "2 66476  43.0002 108.4986 0001305 260.8422 322.6116 15.50658794  4509"
      },
      "geometry": {
        "type": "Point",
        "coordinates": [
          -36.36004697916934,
          -29.722822842452853
        ]
      }
    },
    {
      "type": "Feature",
      "properties": {
        "norad_id": 66477,
        "name": "STARLINK-35354",
        "group": "last-30-days",
        "lat": -31.73141554451146,
        "lon": -32.579163702494505,
        "alt_km": 417.3059133589968,
        "timestamp": "2025-12-06T18:50:08.955072+00:00",
        "meta_object_name": "STARLINK-35354",
        "meta_object_id": "2025-262X",
        "meta_epoch": "2025-12-06T08:00:01.999872",
        "meta_mean_motion": 15.50620003,
        "meta_eccentricity": 0.00011997,
        "meta_inclination": 43.0004,
        "meta_ra_of_asc_node": 108.4882,
        "meta_arg_of_pericenter": 256.3913,
        "meta_mean_anomaly": 330.8998,
        "meta_ephemeris_type": 0,
        "meta_classification_type": "U",
        "meta_norad_cat_id": 66477,
        "meta_element_set_no": 999,
        "meta_rev_at_epoch": 460,
        "meta_bstar": -0.0019552031,
        "meta_mean_motion_dot": -0.00113559,
        "meta_mean_motion_ddot": 0,
        "tle_line1": "1 66477U 25262X   25340.33335648 -.00113559  00000+0 -19552-2 0  9995",
        "tle_line2": "2 66477  43.0004 108.4882 0001199 256.3913 330.8998 15.50620003  4605"
      },
      "geometry": {
        "type": "Point",
        "coordinates": [
          -32.579163702494505,
          -31.73141554451146
        ]
      }
    },
    {
      "type": "Feature",
      "properties": {
        "norad_id": 66478,
        "name": "STARLINK-35283",
        "group": "last-30-days",
        "lat": -32.69343862364675,
        "lon": -30.62628383500901,
        "alt_km": 417.382367239592,
        "timestamp": "2025-12-06T18:50:08.955083+00:00",
        "meta_object_name": "STARLINK-35283",
        "meta_object_id": "2025-262Y",
        "meta_epoch": "2025-12-06T08:00:01.999872",
        "meta_mean_motion": 15.50648692,
        "meta_eccentricity": 0.00013962,
        "meta_inclination": 43.0003,
        "meta_ra_of_asc_node": 108.483,
        "meta_arg_of_pericenter": 267.899,
        "meta_mean_anomaly": 321.3042,
        "meta_ephemeris_type": 0,
        "meta_classification_type": "U",
        "meta_norad_cat_id": 66478,
        "meta_element_set_no": 999,
        "meta_rev_at_epoch": 460,
        "meta_bstar": -0.0028213359,
        "meta_mean_motion_dot": -0.00162863,
        "meta_mean_motion_ddot": 0,
        "tle_line1": "1 66478U 25262Y   25340.33335648 -.00162863  00000+0 -28213-2 0  9992",
        "tle_line2": "2 66478  43.0003 108.4830 0001396 267.8990 321.3042 15.50648692  4608"
      },
      "geometry": {
        "type": "Point",
        "coordinates": [
          -30.62628383500901,
          -32.69343862364675
        ]
      }
    },
    {
      "type": "Feature",
      "properties": {
        "norad_id": 66479,
        "name": "STARLINK-35581",
        "group": "last-30-days",
        "lat": -30.7428051702609,
        "lon": -34.487145449640785,
        "alt_km": 417.3127286108802,
        "timestamp": "2025-12-06T18:50:08.955095+00:00",
        "meta_object_name": "STARLINK-35581",
        "meta_object_id": "2025-262Z",
        "meta_epoch": "2025-12-06T08:00:01.999872",
        "meta_mean_motion": 15.50616306,
        "meta_eccentricity": 0.00011425,
        "meta_inclination": 43.0003,
        "meta_ra_of_asc_node": 108.492,
        "meta_arg_of_pericenter": 260.3714,
        "meta_mean_anomaly": 325.0083,
        "meta_ephemeris_type": 0,
        "meta_classification_type": "U",
        "meta_norad_cat_id": 66479,
        "meta_element_set_no": 999,
        "meta_rev_at_epoch": 460,
        "meta_bstar": -0.0018217151,
        "meta_mean_motion_dot": -0.00105917,
        "meta_mean_motion_ddot": 0,
        "tle_line1": "1 66479U 25262Z   25340.33335648 -.00105917  00000+0 -18217-2 0  9993",
        "tle_line2": "2 66479  43.0003 108.4920 0001142 260.3714 325.0083 15.50616306  4603"
      },
      "geometry": {
        "type": "Point",
        "coordinates": [
          -34.487145449640785,
          -30.7428051702609
        ]
      }
    },
    {
      "type": "Feature",
      "properties": {
        "norad_id": 66480,
        "name": "STARLINK-35670",
        "group": "last-30-days",
        "lat": -33.62581256637438,
        "lon": -28.628468944449367,
        "alt_km": 417.5249278511428,
        "timestamp": "2025-12-06T18:50:08.955130+00:00",
        "meta_object_name": "STARLINK-35670",
        "meta_object_id": "2025-262AA",
        "meta_epoch": "2025-12-06T08:00:01.999872",
        "meta_mean_motion": 15.50680455,
        "meta_eccentricity": 0.00012617,
        "meta_inclination": 43.0003,
        "meta_ra_of_asc_node": 108.4778,
        "meta_arg_of_pericenter": 263.182,
        "meta_mean_anomaly": 327.9367,
        "meta_ephemeris_type": 0,
        "meta_classification_type": "U",
        "meta_norad_cat_id": 66480,
        "meta_element_set_no": 999,
        "meta_rev_at_epoch": 460,
        "meta_bstar": -0.0039466739,
        "meta_mean_motion_dot": -0.00226127,
        "meta_mean_motion_ddot": 0,
        "tle_line1": "1 66480U 25262AA  25340.33335648 -.00226127  00000+0 -39467-2 0  9992",
        "tle_line2": "2 66480  43.0003 108.4778 0001261 263.1820 327.9367 15.50680455  4609"
      },
      "geometry": {
        "type": "Point",
        "coordinates": [
          -28.628468944449367,
          -33.62581256637438
        ]
      }
    },
    {
      "type": "Feature",
      "properties": {
        "norad_id": 66481,
        "name": "STARLINK-35698",
        "group": "last-30-days",
        "lat": -34.52476118370063,
        "lon": -26.58915478482163,
        "alt_km": 417.4690757540684,
        "timestamp": "2025-12-06T18:50:08.955140+00:00",
        "meta_object_name": "STARLINK-35698",
        "meta_object_id": "2025-262AB",
        "meta_epoch": "2025-12-06T08:00:01.999872",
        "meta_mean_motion": 15.50633683,
        "meta_eccentricity": 0.00012158,
        "meta_inclination": 43.0005,
        "meta_ra_of_asc_node": 108.4725,
        "meta_arg_of_pericenter": 262.1859,
        "meta_mean_anomaly": 330.8564,
        "meta_ephemeris_type": 0,
        "meta_classification_type": "U",
        "meta_norad_cat_id": 66481,
        "meta_element_set_no": 999,
        "meta_rev_at_epoch": 460,
        "meta_bstar": -0.0022953101,
        "meta_mean_motion_dot": -0.0013299,
        "meta_mean_motion_ddot": 0,
        "tle_line1": "1 66481U 25262AB  25340.33335648 -.00132990  00000+0 -22953-2 0  9999",
        "tle_line2": "2 66481  43.0005 108.4725 0001215 262.1859 330.8564 15.50633683  4607"
      },
      "geometry": {
        "type": "Point",
        "coordinates": [
          -26.58915478482163,
          -34.52476118370063
        ]
      }
    },
    {
      "type": "Feature",
      "properties": {
        "norad_id": 66482,
        "name": "STARLINK-35648",
        "group": "last-30-days",
        "lat": -35.38771966259994,
        "lon": -24.507854946320656,
        "alt_km": 417.5273794252598,
        "timestamp": "2025-12-06T18:50:08.955150+00:00",
        "meta_object_name": "STARLINK-35648",
        "meta_object_id": "2025-262AC",
        "meta_epoch": "2025-12-06T08:00:01.999872",
        "meta_mean_motion": 15.50661475,
        "meta_eccentricity": 0.00012935,
        "meta_inclination": 43.0005,
        "meta_ra_of_asc_node": 108.468,
        "meta_arg_of_pericenter": 264.7376,
        "meta_mean_anomaly": 330.2162,
        "meta_ephemeris_type": 0,
        "meta_classification_type": "U",
        "meta_norad_cat_id": 66482,
        "meta_element_set_no": 999,
        "meta_rev_at_epoch": 445,
        "meta_bstar": -0.0031915589,
        "meta_mean_motion_dot": -0.00183785,
        "meta_mean_motion_ddot": 0,
        "tle_line1": "1 66482U 25262AC  25340.33335648 -.00183785  00000+0 -31916-2 0  9997",
        "tle_line2": "2 66482  43.0005 108.4680 0001293 264.7376 330.2162 15.50661475  4457"
      },
      "geometry": {
        "type": "Point",
        "coordinates": [
          -24.507854946320656,
          -35.38771966259994
        ]
      }
    }
  ]
}